53P/Van Biesbroeck,e,6.6088,148.8219,134.4443,5.426042,0.0779793,0.55208533,133.7348,01/10.0/2021,2000,g  7.7,4.8
# From MPC 89011
54P/de Vico-Swift-NEAT,e,6.0630,358.8140,1.7680,3.792363,0.1334563,0.42572742,182.1177,01/10.0/2021,2000,g  9.0,4.0
# From MPC 31070
55P/Tempel-Tuttle,e,162.4055,235.4051,172.5207,10.35176,0.0295926,0.90642398,248.1458,01/10.0/2021,2000,g  9.0,4.0
# From MPC101100
56P/Slaughter-Burnham,e,8.1597,345.9885,43.9945,5.070644,0.0863196,0.50717146,141.2338,01/10.0/2021,2000,g  8.5,6.0
# From MPC 98565
57P/du Toit-Neujmin-Delporte,e,2.8508,188.7777,115.2496,3.446208,0.1540607,0.50081076,316.7961,01/10.0/2021,2000,g 12.5,6.0
# From MPEC 2020-SI8
58P/Jackson-Neujmin,e,13.1100,159.0782,200.4438,4.080561,0.1195706,0.66244645,27.2106,01/10.0/2021,2000,g 15.5,6.0
# From MPC111774
59P/Kearns-Kwee,e,9.3415,312.8349,127.5759,4.487950,0.1036650,0.47491431,87.7585,01/10.0/2021,2000,g  7.0,6.0
# From MPEC 2015-M77
60P/Tsuchinshan,e,3.5964,267.5776,216.8914,3.520998,0.1491782,0.53587198,113.5904,01/10.0/2021,2000,g  9.0,4.0
# From MPEC 2015-Q71
61P/Shajn-Schaldach,e,5.9987,162.9819,221.8639,3.685710,0.1392908,0.42385199,269.1209,01/10.0/2021,2000,g  6.0,10.0
# From MPC109147
62P/Tsuchinshan,e,4.8350,70.5589,46.0682,3.342725,0.1612698,0.63407611,186.6084,01/10.0/2021,2000,g  8.0,10.0
# From MPC 84320
63P/Wild,e,19.7313,358.0184,169.1238,5.605754,0.0742597,0.64888006,210.6834,01/10.0/2021,2000,g 10.5,6.0
# From MPC111774
64P/Swift-Gehrels,e,8.9504,300.0012,97.0780,4.454247,0.1048438,0.68776538,83.6612,01/10.0/2021,2000,g  9.5,12.0
# From MPC104795
65P/Gunn,e,9.1810,62.0223,213.8429,3.885134,0.1287049,0.24964777,151.8961,01/10.0/2021,2000,g  5.0,6.0
# From MPC109147
66P/du Toit,e,18.6543,21.8495,257.3433,6.064951,0.0659877,0.78685844,63.7983,01/10.0/2021,2000,g  9.0,4.0
# From MPC 89011
67P/Churyumov-Gerasimenko,e,3.8713,36.4044,22.0663,3.459227,0.1531918,0.65025627,314.6627,01/10.0/2021,2000,g 11.0,4.0
# From MPC 75716
68P/Klemola,e,11.1101,175.0714,153.1055,4.951753,0.0894470,0.63762439,38.2740,01/10.0/2021,2000,g 10.0,4.0
# From MPC114607
69P/Taylor,e,22.0332,104.8288,343.4756,3.888282,0.1285486,0.41304714,85.3337,01/10.0/2021,2000,g  9.5,12.0
# From MPC 92276
70P/Kojima,e,6.5982,119.2678,1.8494,3.676077,0.1398386,0.45351508,318.4432,01/10.0/2021,2000,g 11.0,6.0
# From MPC107051
71P/Clark,e,9.4392,59.4266,209.0360,3.138308,0.1772804,0.49406425,228.5644,01/10.0/2021,2000,g  9.8,6.0
# From MPC 89011
72P/Denning-Fujikawa,e,10.9372,26.6898,346.6794,4.311243,0.1101033,0.81825558,262.3270,01/10.0/2021,2000,g 17.5,10.0
# From MPC106348
73P/Schwassmann-Wachmann,e,11.2310,69.6394,199.4566,3.093026,0.1811877,0.68560828,252.6343,01/10.0/2021,2000,g 11.5,6.0
# From MPC106348
73P-T/Schwassmann-Wachmann,e,11.2331,69.6419,199.4380,3.094587,0.1810506,0.68581109,252.4442,01/10.0/2021,2000,g 11.5,6.0
# From MPEC 2020-M07
74P/Smirnova-Chernykh,e,6.4173,75.6722,97.4023,4.260475,0.1120772,0.15315115,114.4593,01/10.0/2021,2000,g  5.0,6.0
# From MPEC 2020-SI8
76P/West-Kohoutek-Ikemura,e,30.4577,84.1199,359.9858,3.473317,0.1522605,0.53810145,67.2872,01/10.0/2021,2000,g  8.0,12.0
# From MPC100283
77P/Longmore,e,24.3210,14.7891,196.8540,3.621208,0.1430289,0.35218833,243.6747,01/10.0/2021,2000,g  7.0,8.0
# From MPEC 2016-U66
78P/Gehrels,e,6.2500,210.5253,192.6398,3.739325,0.1363058,0.46188423,88.3679,01/10.0/2021,2000,g  9.0,4.0
# From MPC 94675
79P/du Toit-Hartley,e,3.1480,280.5281,281.8120,2.942807,0.1952366,0.61889841,165.9576,01/10.0/2021,2000,g 16.0,4.0
# From MPEC 2014-P41
80P/Peters-Hartley,e,29.9363,259.8200,339.2534,4.024318,0.1220859,0.59892968,274.8187,01/10.0/2021,2000,g  9.0,4.0
# From MPC105241
81P/Wild,e,3.2368,136.1005,41.6965,3.451059,0.1537360,0.53706901,251.6466,01/10.0/2021,2000,g  7.0,6.0
# From MPEC 2020-L06
82P/Gehrels,e,1.1285,239.3099,226.7665,4.136020,0.1171737,0.12169925,108.9046,01/10.0/2021,2000,g  5.0,8.0
# From MPEC 2020-SI8
84P/Giclas,e,7.5522,108.1749,281.5697,3.548620,0.1474399,0.51562747,32.4613,01/10.0/2021,2000,g  9.5,8.0
# From MPC109147
86P/Wild,e,15.4741,72.3660,179.3537,3.603211,0.1441019,0.37253139,303.3028,01/10.0/2021,2000,g 11.0,6.0
# From MPEC 2020-SI8
87P/Bus,e,2.6034,181.8533,25.0039,3.440180,0.1544658,0.38952613,37.9282,01/10.0/2021,2000,g  7.2,10.0
# From MPEC 2019-JE2
88P/Howell,e,4.3837,56.6807,235.9041,3.105419,0.1801041,0.56429859,18.9825,01/10.0/2021,2000,g 11.0,6.0
# From MPC100283
89P/Russell,e,12.0696,41.3947,250.3130,3.753976,0.1355086,0.40864996,201.3584,01/10.0/2021,2000,g 11.5,6.0
# From MPC107051
90P/Gehrels,e,9.6443,13.2081,29.0831,6.053746,0.0661710,0.50988282,86.0831,01/10.0/2021,2000,g  8.5,6.0
# From MPC105241
91P/Russell,e,14.0910,247.8275,354.8130,3.891057,0.1284112,0.33072286,7.9066,01/10.0/2021,2000,g  7.5,6.0
# From MPEC 2014-J58
92P/Sanguin,e,19.4889,181.3758,163.7338,5.344847,0.0797629,0.66074884,170.6393,01/10.0/2021,2000,g 12.0,6.0
# From NK 2707
93P/Lovas,e,12.2029,339.6399,74.8300,4.383555,0.1073901,0.61233600,151.5483,01/10.0/2021,2000,g  9.0,4.0
# From MPEC 2020-W26
94P/Russell,e,6.1879,70.8599,92.4788,3.507196,0.1500597,0.36478994,230.7014,01/10.0/2021,2000,g  9.0,6.0
# From MPC 75717
95P/Chiron,e,6.9341,209.2614,339.7605,13.69479,0.0194478,0.37784721,177.2678,01/10.0/2021,2000,g  6.5,2.0
# From MPEC 2017-T14
96P/Machholz,e,57.7208,94.0500,14.7183,3.027687,0.1870844,0.96161003,219.4138,01/10.0/2021,2000,g  9.0,4.0
# From MPC 77020
97P/Metcalf-Brewington,e,17.9309,184.1078,229.7682,4.771957,0.0945495,0.46105064,322.0965,01/10.0/2021,2000,g  5.5,6.0
# From MPEC 2013-H38
98P/Takamizawa,e,10.5614,114.7115,157.9211,3.799418,0.1330848,0.56229814,0.6747,01/10.0/2021,2000,g  9.0,8.0
# From MPEC 2020-W26
99P/Kowal,e,4.3384,28.1119,174.9531,6.111504,0.0652352,0.23001822,330.1330,01/10.0/2021,2000,g  4.5,6.0
# From MPEC 2013-O31
100P/Hartley,e,25.5672,37.7075,181.9973,3.432060,0.1550143,0.41243376,270.4097,01/10.0/2021,2000,g  9.0,4.0
# From MPC115887
101P/Chernykh,e,5.0528,116.2308,277.6985,5.801430,0.0705345,0.59582556,25.6352,01/10.0/2021,2000,g 12.0,4.8
# From MPC 86232
102P/Shoemaker,e,25.8845,339.3656,20.5380,3.813463,0.1323503,0.45720774,358.3605,01/10.0/2021,2000,g  6.5,8.0
# From MPEC 2018-HA5
103P/Hartley,e,13.5975,219.7286,181.2870,3.476350,0.1520613,0.69308137,207.0164,01/10.0/2021,2000,g  8.5,8.0
# From MPC100283
104P/Kowal,e,5.7176,207.5956,226.9380,3.208876,0.1714647,0.66616753,297.2625,01/10.0/2021,2000,g 16.0,4.0
# From MPC109147
105P/Singer Brewster,e,9.1717,192.4165,46.4802,3.466927,0.1526817,0.40967541,134.9895,01/10.0/2021,2000,g 11.5,6.0
# From MPC 92276
106P/Schuster,e,19.5359,48.9095,353.6312,3.764701,0.1349299,0.59396192,330.2173,01/10.0/2021,2000,g 14.0,4.8
# From MPEC 2015-M77
107P/Wilson-Harrington,e,2.7984,266.8035,95.3882,2.625515,0.2316766,0.63142785,222.9030,01/10.0/2021,2000,g  9.0,4.0
# From MPC 89313
108P/Ciffreo,e,11.4368,50.3251,354.3580,3.741676,0.1361773,0.55627584,326.9080,01/10.0/2021,2000,g  8.0,12.0
# From  105, 420
109P/Swift-Tuttle,e,113.9791,139.0456,152.8935,26.12725,0.0073801,0.96298495,75.7717,01/10.0/2021,2000,g  4.0,6.0
# From MPEC 2020-W26
110P/Hartley,e,11.7073,287.5335,167.4578,3.600783,0.1442476,0.31799325,319.4145,01/10.0/2021,2000,g  1.0,12.0
# From MPC 75718
111P/Helin-Roman-Crockett,e,4.2272,89.7661,1.0470,4.146113,0.1167461,0.10576838,341.6683,01/10.0/2021,2000,g  5.0,8.0
# From MPC118097
112P/Urata-Niijima,e,24.1924,31.8406,21.4933,3.526007,0.1488604,0.58981351,50.1711,01/10.0/2021,2000,g 14.0,6.0
# From MPEC 2015-E14
113P/Spitaler,e,5.3032,306.7173,115.3111,3.704204,0.1382489,0.42259902,290.0360,01/10.0/2021,2000,g 13.5,4.0
# From MPEC 2019-TG9
114P/Wiseman-Skiff,e,18.2724,271.0555,172.7865,3.546075,0.1475986,0.55471917,53.4241,01/10.0/2021,2000,g 11.5,6.0
# From MPEC 2020-SI8
115P/Maury,e,11.6770,176.0094,120.9908,4.273949,0.1115476,0.51876795,18.3311,01/10.0/2021,2000,g 10.5,6.0
# From MPC106348
116P/Wild,e,3.6036,20.9899,173.3622,3.489247,0.1512191,0.37071260,276.3685,01/10.0/2021,2000,g  2.5,10.0
# From MPEC 2015-S97
117P/Helin-Roman-Alu,e,8.7019,58.8473,222.7993,4.085666,0.1193465,0.25576061,295.1900,01/10.0/2021,2000,g  9.0,4.0
# From MPC 95735
118P/Shoemaker-Levy,e,10.0091,142.1858,313.8159,3.374828,0.1589742,0.45697012,252.1535,01/10.0/2021,2000,g 12.0,4.0
# From MPC 84628
119P/Parker-Hartley,e,7.4326,104.8069,321.4289,3.825642,0.1317187,0.39231316,284.1031,01/10.0/2021,2000,g  3.5,8.0
# From MPEC 2020-SI8
120P/Mueller,e,8.4898,358.6740,36.5421,3.961848,0.1249848,0.37455440,345.3659,01/10.0/2021,2000,g 12.0,4.0
# From MPEC 2020-SI8
121P/Shoemaker-Holt,e,20.1631,94.1337,11.3097,4.585554,0.1003729,0.18536652,269.8487,01/10.0/2021,2000,g  6.5,8.0
# From MPC 75718
122P/de Vico,e,84.7947,79.5359,13.0130,17.62922,0.0133154,0.96226221,123.1727,01/10.0/2021,2000,g  7.5,5.2
# From MPC114608
123P/West-Hartley,e,15.3098,46.3120,103.6055,3.870559,0.1294326,0.44802861,91.1800,01/10.0/2021,2000,g  4.0,10.0
# From MPEC 2020-SI8
124P/Mrkos,e,31.5131,0.3607,183.8935,3.318740,0.1630212,0.50347704,42.0700,01/10.0/2021,2000,g 13.5,2.8
# From MPEC 2015-M77
125P/Spacewatch,e,9.9867,153.1546,87.2339,3.125505,0.1783708,0.51287681,154.5326,01/10.0/2021,2000,g  9.0,4.0
# From MPC 66205
126P/IRAS,e,45.8627,357.8564,356.5114,5.641079,0.0735632,0.69617432,293.3220,01/10.0/2021,2000,g  9.0,4.0
# From MPC 84321
127P/Holt-Olmstead,e,14.2973,13.6424,6.5050,3.450351,0.1537833,0.35985250,271.0832,01/10.0/2021,2000,g 11.0,6.0
# From MPC 89014
128P/Shoemaker-Holt,e,4.3667,214.2944,210.3360,4.493012,0.1034899,0.32055014,151.2747,01/10.0/2021,2000,g  8.5,4.0
# From MPEC 2019-TG9
129P/Shoemaker-Levy,e,3.4426,184.8870,307.9716,4.282380,0.1112183,0.08394890,282.8922,01/10.0/2021,2000,g 11.0,4.0
# From MPC 78188
130P/McNaught-Hughes,e,6.0632,70.2357,245.9861,3.383864,0.1583379,0.46134876,171.5681,01/10.0/2021,2000,g 10.0,6.0
# From MPC102101
131P/Mueller,e,7.3543,214.1652,179.0320,3.681086,0.1395533,0.34376268,100.0299,01/10.0/2021,2000,g 11.0,4.0
# From MPEC 2020-HN5
